[{"OBJECT_NAME":"OBJECT AD","OBJECT_ID":"2023-085AD","EPOCH":"2026-03-09T21:41:29.115744","MEAN_MOTION":15.31779154,"ECCENTRICITY":0.00101154,"INCLINATION":97.4841,"RA_OF_ASC_NODE":180.2223,"ARG_OF_PERICENTER":77.5993,"MEAN_ANOMALY":282.638,"EPHEMERIS_TYPE":0,"CLASSIFICATION_TYPE":"U","NORAD_CAT_ID":57031,"ELEMENT_SET_NO":999,"REV_AT_EPOCH":15156,"BSTAR":0.00068352515,"MEAN_MOTION_DOT":0.00020961,"MEAN_MOTION_DDOT":0},{"OBJECT_NAME":"STARLINK-32118","OBJECT_ID":"2024-132C","EPOCH":"2026-03-09T08:52:39.180288","MEAN_MOTION":15.30196864,"ECCENTRICITY":0.00012711,"INCLINATION":53.1609,"RA_OF_ASC_NODE":53.7564,"ARG_OF_PERICENTER":82.9335,"MEAN_ANOMALY":277.181,"EPHEMERIS_TYPE":0,"CLASSIFICATION_TYPE":"U","NORAD_CAT_ID":60280,"ELEMENT_SET_NO":999,"REV_AT_EPOCH":9151,"BSTAR":1.7584569e-5,"MEAN_MOTION_DOT":1.62e-6,"MEAN_MOTION_DDOT":0}]
